STARLINK-1434           
1 45712U 20035BH  26068.24137979  .00054112  00000+0  20295-2 0  9995
2 45712  53.0547  22.1128 0005343  88.0400 272.1210 15.26724568319325
STARLINK-32324          
1 61863U 24202U   26068.48381625  .00006231  00000+0  23590-3 0  9996
2 61863  43.0028 239.3682 0000778 238.0815 121.9961 15.27558638 75297
